ONEWEB-0156             
1 48052U 21025L   24295.41083406  .00000261  00000+0  67994-3 0  9993
2 48052  87.8883  80.3202 0001544  94.5725 265.5581 13.13471911174313
ONEWEB-0161             
1 48053U 21025M   24295.38386861 -.00002879  00000+0 -79197-2 0  9997
2 48053  87.8884  80.3362 0001975  81.7123 278.4230 13.13485175174243
ONEWEB-0158             
1 48054U 21025N   24295.34576585 -.00000062  00000+0 -20347-3 0  9994
2 48054  87.8882  80.3310 0001581 100.6753 259.4554 13.13469576174366
ONEWEB-0157             
1 48055U 21025P   24295.36957389 -.00000144  00000+0 -42801-3 0  9992
2 48055  87.8878  80.3402 0001435  82.0834 278.0458 13.13470201174306
ONEWEB-0162             
1 48056U 21025Q   24295.40924602  .00000227  00000+0  58621-3 0  9997
2 48056  87.8878  80.3260 0001513  94.3262 265.8040 13.13466785174287
ONEWEB-0155             
1 48057U 21025R   24295.81076039 -.00000171  00000+0 -50273-3 0  9990
2 48057  87.8882  80.2583 0001687  88.3622 271.7700 13.13471667174470
ONEWEB-0149             
1 48058U 21025S   24295.37432188 -.00000021  00000+0 -92445-4 0  9995
2 48058  87.8877  80.3410 0001418  99.1709 260.9580 13.13467403174225
ONEWEB-0148             
1 48059U 21025T   24295.33942097  .00000076  00000+0  17322-3 0  9995
2 48059  87.8884  80.3625 0000935  93.4837 266.6399 13.13468325174342
ONEWEB-0160             
1 48060U 21025U   24294.97441196 -.00000249  00000+0 -71708-3 0  9992
2 48060  87.8883  80.4319 0002264 114.1166 246.0201 13.13468111174243
ONEWEB-0163             
1 48061U 21025V   24295.34101885  .00001189  00000+0  32213-2 0  9992
2 48061  87.8878  80.3471 0001455  87.4778 272.6518 13.13463621174414
ONEWEB-0159             
1 48062U 21025W   24295.86312824  .00000351  00000+0  92519-3 0  9993
2 48062  87.8880  80.2258 0001342  88.0135 272.1148 13.13472668174403
ONEWEB-0164             
1 48063U 21025X   24295.38862188  .00000241  00000+0  62407-3 0  9995
2 48063  87.8878  80.3309 0001703  93.9976 266.1348 13.13468146174320
ONEWEB-0167             
1 48064U 21025Y   24295.87504778  .00000154  00000+0  38655-3 0  9999
2 48064  87.8884  80.2475 0001460  87.9674 272.1623 13.13467835174371
ONEWEB-0166             
1 48065U 21025Z   24295.36321887 -.00000271  00000+0 -77818-3 0  9998
2 48065  87.8877  80.3276 0001402  97.0539 263.0750 13.13472261174382
ONEWEB-0151             
1 48066U 21025AA  24295.36479636 -.00000588  00000+0 -16455-2 0  9995
2 48066  87.8879  80.3440 0001744  91.5871 268.5457 13.13469334174320
ONEWEB-0170             
1 48067U 21025AB  24295.37273180 -.00000167  00000+0 -49125-3 0  9997
2 48067  87.8879  80.3456 0002211  96.9804 263.1576 13.13473429174281
ONEWEB-0168             
1 48068U 21025AC  24295.81551583 -.00000250  00000+0 -72035-3 0  9992
2 48068  87.8883  80.2303 0001559  92.2250 267.9058 13.13466853174353
ONEWEB-0173             
1 48069U 21025AD  24295.80760329 -.00000127  00000+0 -38254-3 0  9990
2 48069  87.8885  80.2415 0001686  79.7149 280.4170 13.13468271174595
ONEWEB-0171             
1 48070U 21025AE  24295.38703358  .00000224  00000+0  57892-3 0  9999
2 48070  87.8883  80.3624 0001725  91.5644 268.5682 13.13468459174351
ONEWEB-0172             
1 48071U 21025AF  24295.36640458 -.00000171  00000+0 -50344-3 0  9997
2 48071  87.8881  80.3326 0001696  88.9560 271.1764 13.13469453175248
ONEWEB-0174             
1 48072U 21025AG  24295.80598531  .00000702  00000+0  18871-2 0  9997
2 48072  87.8881  80.2560 0000997 104.0353 256.0887 13.13476404174624
ONEWEB-0175             
1 48073U 21025AH  24295.37749182 -.00000436  00000+0 -12280-2 0  9994
2 48073  87.8875  80.3255 0001939  91.2501 268.8850 13.13469369174228
ONEWEB-0177             
1 48074U 21025AJ  24295.39020709  .00000307  00000+0  80510-3 0  9991
2 48074  87.8878  80.3329 0001439  81.9972 278.1320 13.13468668174415
ONEWEB-0178             
1 48075U 21025AK  24294.95072986  .00000258  00000+0  67087-3 0  9996
2 48075  87.8887  80.4471 0001532  86.2360 273.8944 13.13467184174403
ONEWEB-0108             
1 48076U 21025AL  24295.36798973 -.00000144  00000+0 -42952-3 0  9994
2 48076  87.8878  80.3341 0001556 102.2795 257.8508 13.13468755174386
ONEWEB-0169             
1 48077U 21025AM  24295.85678137  .00000012  00000+0 -27266-5 0  9994
2 48077  87.8880  80.2497 0001522 102.3806 257.7493 13.13470563173109
ONEWEB-0176             
1 48210U 21031A   24294.87989385 -.00000088  00000+0 -27103-3 0  9993
2 48210  87.9014  49.8634 0001684  99.3980 260.7341 13.14500867168921
ONEWEB-0184             
1 48211U 21031B   24295.30965007  .00000305  00000+0  78930-3 0  9992
2 48211  87.9008  49.7570 0002485  85.4691 274.6722 13.14500988168952
ONEWEB-0179             
1 48212U 21031C   24294.82281410 -.00000133  00000+0 -39214-3 0  9991
2 48212  87.9013  49.8619 0001636  97.3819 262.7497 13.14502211168931
ONEWEB-0180             
1 48213U 21031D   24294.85610772  .00000075  00000+0  16681-3 0  9998
2 48213  87.9014  49.8499 0001919  85.4114 274.7235 13.14502897168820
ONEWEB-0218             
1 48214U 21031E   24295.25890450  .00000046  00000+0  90868-4 0  9995
2 48214  87.9011  49.7707 0002388  77.3799 282.7598 13.14503140169036
ONEWEB-0209             
1 48215U 21031F   24295.24780240  .00000274  00000+0  70562-3 0  9991
2 48215  87.9013  49.8101 0001510  94.9522 265.1780 13.14503821169037
ONEWEB-0198             
1 48216U 21031G   24295.30806332  .00000266  00000+0  68203-3 0  9990
2 48216  87.9009  49.8018 0001804  85.2766 274.8570 13.14501087169158
ONEWEB-0189             
1 48217U 21031H   24295.32074834  .00000270  00000+0  69420-3 0  9994
2 48217  87.9013  49.7742 0001766  82.7471 277.3859 13.14501017168890
ONEWEB-0196             
1 48218U 21031J   24295.29855595  .00000121  00000+0  29180-3 0  9996
2 48218  87.9012  49.7852 0001700  95.8060 264.3264 13.14502758168898
ONEWEB-0183             
1 48219U 21031K   24295.27316388 -.00000189  00000+0 -54446-3 0  9996
2 48219  87.9015  49.8055 0001497  98.5803 261.5496 13.14500399168981
ONEWEB-0185             
1 48220U 21031L   24295.29934639  .00000114  00000+0  27365-3 0  9991
2 48220  87.9012  49.7715 0001418  91.0358 269.0935 13.14502689168916
ONEWEB-0187             
1 48221U 21031M   24295.26921104 -.00000127  00000+0 -37580-3 0  9998
2 48221  87.9013  49.8113 0001559  98.0713 262.0594 13.14502235168921
ONEWEB-0192             
1 48222U 21031N   24295.24939638  .00000176  00000+0  44041-3 0  9990
2 48222  87.9012  49.8131 0001725  95.5573 264.5753 13.14503379168836
ONEWEB-0219             
1 48223U 21031P   24295.30488989  .00000194  00000+0  48966-3 0  9996
2 48223  87.9011  49.7759 0001514  92.0486 268.0817 13.14501272169046
ONEWEB-0202             
1 48224U 21031Q   24295.28586357 -.00000153  00000+0 -44801-3 0  9993
2 48224  87.9010  49.7972 0002050  76.5823 283.5535 13.14502904169021
ONEWEB-0204             
1 48225U 21031R   24295.31995327  .00000303  00000+0  78254-3 0  9993
2 48225  87.9013  49.8025 0001473 110.9303 249.1984 13.14500757168927
ONEWEB-0205             
1 48226U 21031S   24295.29536143 -.00000341  00000+0 -95414-3 0  9999
2 48226  87.9010  49.7789 0001506  93.5306 266.5996 13.14502170168935
ONEWEB-0206             
1 48227U 21031T   24294.88781684 -.00000147  00000+0 -43174-3 0  9996
2 48227  87.9007  49.8457 0001486  94.9325 265.1974 13.14500070168835
ONEWEB-0182             
1 48228U 21031U   24295.26365491 -.00000068  00000+0 -21746-3 0  9997
2 48228  87.9015  49.8037 0001617 103.3437 256.7873 13.14500724169093
ONEWEB-0186             
1 48229U 21031V   24295.27476274 -.00000145  00000+0 -42542-3 0  9994
2 48229  87.9013  49.7648 0001712  96.1377 263.9948 13.14502611169042
ONEWEB-0181             
1 48230U 21031W   24295.25256504  .00000153  00000+0  37929-3 0  9996
2 48230  87.9014  49.8394 0001700  93.4212 266.7113 13.14501662168891
ONEWEB-0188             
1 48231U 21031X   24295.29060241 -.00000109  00000+0 -32752-3 0  9994
2 48231  87.9013  49.8262 0001586  98.3695 261.7615 13.14506454168803
ONEWEB-0220             
1 48232U 21031Y   24295.25414910  .00000094  00000+0  21926-3 0  9999
2 48232  87.9006  49.7904 0001372  92.8560 267.2727 13.14501706169060
ONEWEB-0165             
1 48233U 21031Z   24295.28269166 -.00000134  00000+0 -39614-3 0  9994
2 48233  87.9012  49.8100 0001629  94.2710 265.8605 13.14502627169023
ONEWEB-0199             
1 48234U 21031AA  24294.81011846 -.00000230  00000+0 -65501-3 0  9994
2 48234  87.9014  49.8715 0001881 104.1294 256.0045 13.14500117168869
ONEWEB-0203             
1 48235U 21031AB  24294.87672279 -.00000006  00000+0 -51005-4 0  9990
2 48235  87.9012  49.8600 0002047  98.8912 261.2449 13.14500046168881
ONEWEB-0197             
1 48236U 21031AC  24294.85214820  .00000299  00000+0  77107-3 0  9995
2 48236  87.9012  49.8749 0001438 108.5767 251.5519 13.14500783168794
ONEWEB-0194             
1 48237U 21031AD  24295.28743875 -.00000048  00000+0 -16309-3 0  9992
2 48237  87.9014  49.7822 0001993 102.4002 257.7351 13.14500438169025
ONEWEB-0193             
1 48238U 21031AE  24295.30330492  .00000137  00000+0  33467-3 0  9994
2 48238  87.9012  49.7870 0001753  93.9611 266.1719 13.14501294168977
ONEWEB-0191             
1 48239U 21031AF  24295.31440614  .00000285  00000+0  73372-3 0  9997
2 48239  87.9009  49.7639 0001751  93.5239 266.6091 13.14501139168838
ONEWEB-0195             
1 48240U 21031AG  24295.29141720  .00000106  00000+0  25192-3 0  9991
2 48240  87.9010  49.7680 0001752  86.7200 273.4130 13.14501855168814
ONEWEB-0201             
1 48241U 21031AH  24295.28031341 -.00000071  00000+0 -22659-3 0  9996
2 48241  87.9010  49.8089 0001592  95.8826 264.2485 13.14502829169045
ONEWEB-0207             
1 48242U 21031AJ  24295.25969137 -.00000023  00000+0 -95613-4 0  9995
2 48242  87.9012  49.7770 0001425  99.7005 260.4286 13.14500962168953
